KUIPER-00112            
1 65150U 25171U   25322.50002315 -.01496821  00000+0 -10363+0 0  9997
2 65150  51.8906 289.2759 0008745 138.3122 330.6603 15.08568045  5114
KUIPER-00114            
1 65151U 25171V   25322.16670277  .00005771  00000+0  78506-3 0  9992
2 65151  51.9007 308.7616 0006470  99.3790 260.7904 14.79949805 16121
KUIPER-00115            
1 65152U 25171W   25322.24235515  .00006479  00000+0  87776-3 0  9999
2 65152  51.9018 300.9037 0010650 121.2397 238.9610 14.79924850 16245
KUIPER-00116            
1 65153U 25171X   25322.50002315 -.00002010  00000+0 -23426-3 0  9990
2 65153  51.8989 304.8141 0010353  86.6106  56.1990 14.79904115  4940
KUIPER-00118            
1 65154U 25171Y   25320.98429947 -.00017926  00000+0 -23246-2 0  9996
2 65154  51.9016 313.9604 0002709 139.2956 220.8210 14.80003510 15951
KUIPER-00119            
1 65155U 25171Z   25322.50002315 -.00987119  00000+0 -12670+0 0  9999
2 65155  51.9092 294.8944 0008761 106.7331 324.0196 14.83901769  4639
KUIPER-00120            
1 65762U 25217A   25322.25002315 -.00321859  00000+0 -26916-1 0  9999
2 65762  51.8886 186.9999 0014746 284.4049 257.8786 14.99675317  2982
KUIPER-00132            
1 65763U 25217B   25321.99619390  .00029609  00000+0  82042-3 0  9997
2 65763  51.8626 184.3690 0005261 286.0982  73.9425 15.36702795  8235
